STARLINK-5291           
1 55273U 23010E   24109.83435000  .00000347  00000+0  36160-4 0  9990
2 55273  70.0010 343.7748 0003154 270.8645  89.2153 14.99140322 69135
STARLINK-5236           
1 55274U 23010F   24109.84876318  .00001147  00000+0  10387-3 0  9994
2 55274  70.0009 323.9575 0002267 249.9463 110.1452 14.98339469 69622
STARLINK-5260           
1 55275U 23010G   24109.84059147 -.00000264  00000+0 -14326-4 0  9997
2 55275  69.9986 323.9281 0003205 267.8234  92.2558 14.98333930 69620
STARLINK-5261           
1 55276U 23010H   24109.84042607 -.00000507  00000+0 -34716-4 0  9996
2 55276  70.0000 323.9269 0002551 256.9438 103.1436 14.98333722 69632
STARLINK-5299           
1 55277U 23010J   24109.84900127 -.00001401  00000+0 -10963-3 0  9998
2 55277  69.9997 343.8230 0003103 270.3879  89.6925 14.98331464 69145
STARLINK-5289           
1 55278U 23010K   24109.83229918  .00000755  00000+0  71058-4 0  9992
2 55278  70.0017 343.7655 0002928 261.9978  98.0848 14.98335214 69147
STARLINK-5323           
1 55279U 23010L   24109.84482636  .00000412  00000+0  42332-4 0  9995
2 55279  70.0000 343.8090 0003034 265.5570  94.5242 14.98327756 69131
STARLINK-5331           
1 55280U 23010M   24109.89087874  .00001131  00000+0  10254-3 0  9993
2 55280  70.0015 343.5636 0003016 275.2688  84.8127 14.98332092 69144
STARLINK-5298           
1 55281U 23010N   24109.84064980  .00000200  00000+0  24558-4 0  9991
2 55281  69.9996 343.7939 0003299 272.6423  87.4358 14.98333779 69147
STARLINK-5330           
1 55282U 23010P   24109.88654031  .00001926  00000+0  16918-3 0  9994
2 55282  70.0011 343.5488 0003233 280.4353  79.6442 14.98334355 69152
STARLINK-5317           
1 55283U 23010Q   24109.83647440  .00001843  00000+0  16222-3 0  9992
2 55283  70.0006 343.7790 0003300 275.8819  84.1964 14.98336513 69142
STARLINK-5337           
1 55284U 23010R   24109.88237892  .00002379  00000+0  20712-3 0  9998
2 55284  70.0013 343.5359 0002887 275.2144  84.8685 14.98330084 69159
STARLINK-5332           
1 55285U 23010S   24109.85269445  .00000928  00000+0  85532-4 0  9995
2 55285  69.9983 303.6851 0002858 254.8747 105.2096 14.98335932 70127
STARLINK-5338           
1 55286U 23010T   24109.83207640  .00000391  00000+0  40603-4 0  9997
2 55286  69.9985 323.8954 0003186 273.0512  87.0283 14.98332282 69629
STARLINK-5341           
1 55287U 23010U   24109.84869838  .00002886  00000+0  24947-3 0  9995
2 55287  70.0014 303.9881 0001925 244.3515 115.7445 14.98342586 70110
STARLINK-5311           
1 55288U 23010V   24109.88647939  .00000002  00000+0  79423-5 0  9995
2 55288  69.9984 323.6811 0003202 263.6139  96.4655 14.98314069 69630
STARLINK-5320           
1 55289U 23010W   24109.83625037 -.00000391  00000+0 -24991-4 0  9998
2 55289  69.9990 323.9113 0002769 264.3565  95.7278 14.98333310 69626
STARLINK-5266           
1 55290U 23010X   24109.82786024  .00007309  00000+0  61870-3 0  9993
2 55290  70.0007 323.8818 0002306 246.4797 113.6120 14.98394810 69635
STARLINK-5327           
1 55291U 23010Y   24109.84459843  .00000318  00000+0  34472-4 0  9994
2 55291  69.9990 323.9379 0003166 272.0066  88.0730 14.98335598 69625
STARLINK-5325           
1 55292U 23010Z   24109.88215671 -.00000328  00000+0 -19738-4 0  9999
2 55292  70.0016 323.6690 0001968 236.4060 123.6911 14.98322384 69634
STARLINK-5287           
1 55293U 23010AA  24109.88633190 -.00001644  00000+0 -13005-3 0  9992
2 55293  69.9983 323.6816 0003484 274.3014  85.7747 14.98319908 69644
STARLINK-5286           
1 55294U 23010AB  24109.89072268  .00008157  00000+0  69033-3 0  9993
2 55294  70.0027 343.5636 0002964 264.4410  95.6411 14.98345316 69156
STARLINK-5293           
1 55295U 23010AC  24109.86569383  .00001009  00000+0  92338-4 0  9994
2 55295  69.9998 343.8820 0003301 273.6098  86.4684 14.98332729 69142
STARLINK-5285           
1 55296U 23010AD  24109.86961639 -.00000353  00000+0 -21758-4 0  9996
2 55296  69.9992 323.6202 0003264 268.7715  91.3070 14.98333629 69634
STARLINK-5284           
1 55297U 23010AE  24109.87796787 -.00002158  00000+0 -17303-3 0  9993
2 55297  69.9989 323.6536 0003179 261.5581  98.5218 14.98344037 69636
STARLINK-5272           
1 55298U 23010AF  24109.86143374 -.00000884  00000+0 -66312-4 0  9990
2 55298  70.0005 323.5960 0002730 246.3154 113.7719 14.98329245 69638
STARLINK-5270           
1 55299U 23010AG  24109.86543273  .00001437  00000+0  12819-3 0  9998
2 55299  70.0006 323.6121 0002660 253.3898 106.6969 14.98344081 69638
STARLINK-5308           
1 55300U 23010AH  24109.86127574 -.00001138  00000+0 -87627-4 0  9993
2 55300  69.9982 323.5920 0003232 265.9770  94.1020 14.98331162 69636
STARLINK-5321           
1 55302U 23010AK  24109.87379170 -.00000011  00000+0  68368-5 0  9997
2 55302  69.9994 323.6342 0003101 261.4540  98.6268 14.98331837 69633
STARLINK-5322           
1 55303U 23010AL  24109.81143124  .00001453  00000+0  12957-3 0  9991
2 55303  69.9998 343.6882 0003432 279.2132  80.8638 14.98331130 69146
STARLINK-5318           
1 55304U 23010AM  24109.85709808 -.00000474  00000+0 -31930-4 0  9990
2 55304  69.9986 323.5760 0002877 260.5611  99.5223 14.98329592 69633
STARLINK-5316           
1 55305U 23010AN  24109.78619183 -.00000679  00000+0 -49144-4 0  9992
2 55305  69.9989 324.1380 0002939 265.2483  94.8341 14.98327617 69613
STARLINK-5295           
1 55306U 23010AP  24109.62322600 -.00000320  00000+0 -19019-4 0  9992
2 55306  69.9986 304.4929 0003090 268.1217  91.9588 14.98332393 70404
STARLINK-5288           
1 55307U 23010AQ  24109.56064199  .00001841  00000+0  16209-3 0  9996
2 55307  69.9977 304.6766 0003318 268.4545  91.6234 14.98317263 70073
STARLINK-5292           
1 55308U 23010AR  24109.87373191 -.00000953  00000+0 -72019-4 0  9993
2 55308  69.9980 303.7608 0003155 262.8368  97.2432 14.98341466 70123
STARLINK-5315           
1 55309U 23010AS  24109.62338987  .00000622  00000+0  59947-4 0  9997
2 55309  69.9981 304.4918 0003212 270.8936  89.1855 14.98332298 70404
STARLINK-5309           
1 55310U 23010AT  24109.88192150 -.00002254  00000+0 -18128-3 0  9997
2 55310  69.9992 303.7913 0002773 256.2387 103.8464 14.98315644 70129
STARLINK-5312           
1 55311U 23010AU  24109.61905060 -.00000176  00000+0 -69510-5 0  9995
2 55311  69.9987 304.4784 0003179 264.2185  95.8611 14.98329326 71277
STARLINK-5296           
1 55312U 23010AV  24109.85686447 -.00000138  00000+0 -37803-5 0  9995
2 55312  69.9990 303.5911 0002773 256.3402 103.7448 14.98332300 70123
STARLINK-5313           
1 55313U 23010AW  24109.87356307 -.00003038  00000+0 -24684-3 0  9990
2 55313  69.9974 303.7595 0003180 266.8961  93.1834 14.98335877 70128
STARLINK-5305           
1 55314U 23010AX  24109.87775666  .00000311  00000+0  33854-4 0  9993
2 55314  69.9980 303.7719 0003050 264.1921  95.8891 14.98330661 70125
STARLINK-4623           
1 55315U 23010AY  24109.82372991 -.00000286  00000+0 -16141-4 0  9996
2 55315  69.9988 323.8650 0003046 267.8846  92.1965 14.98331670 69639
STARLINK-5257           
1 55316U 23010AZ  24109.84852737 -.00002188  00000+0 -17565-3 0  9993
2 55316  69.9974 303.6875 0003339 274.3119  85.7659 14.98321945 70130
STARLINK-5265           
1 55317U 23010BA  24109.86939648 -.00000549  00000+0 -38216-4 0  9999
2 55317  69.9974 303.7724 0003428 269.7537  90.3229 14.98333556 70132
STARLINK-5180           
1 55318U 23010BB  24109.86521908  .00000826  00000+0  76985-4 0  9997
2 55318  69.9982 303.7287 0002861 268.0799  92.0032 14.98333037 70122
STARLINK-5196           
1 55319U 23010BC  24109.86104305 -.00000251  00000+0 -13252-4 0  9998
2 55319  69.9992 303.7183 0002566 255.6578 104.4296 14.98334367 70125
STARLINK-5492           
1 55331U 23013A   24109.37669992 -.00001591  00000+0 -10274-3 0  9997
2 55331  43.0041  91.7152 0001239 263.4186  96.6516 15.02532908 68946
STARLINK-5491           
1 55332U 23013B   24109.35919608 -.00002305  00000+0 -15555-3 0  9999
2 55332  43.0064  78.5580 0001565 275.6820  84.3844 15.02548064 68018
STARLINK-5493           
1 55333U 23013C   24109.43762515  .00001434  00000+0  12120-3 0  9997
2 55333  43.0056  91.3076 0001918 244.7434 115.3210 15.02533039 67874
STARLINK-5652           
1 55334U 23013D   24109.37301910  .00000796  00000+0  75507-4 0  9998
2 55334  43.0060  89.8985 0001874 250.7658 109.2981 15.01718770 67881
STARLINK-5660           
1 55335U 23013E   24109.30134426 -.00001166  00000+0 -71251-4 0  9994
2 55335  43.0032  92.0050 0001164 257.6897 102.3815 15.02532619 67857
STARLINK-5655           
1 55336U 23013F   24109.30138720  .00020509  00000+0  15554-2 0  9998
2 55336  43.0041  78.9014 0000998 297.5512  62.5229 15.01883092 68009
STARLINK-5667           
1 55337U 23013G   24109.41456843  .00002860  00000+0  22671-3 0  9999
2 55337  43.0035  78.0800 0001291 278.1744  81.8952 15.02535072 68028
STARLINK-5658           
1 55338U 23013H   24109.36559805  .00006176  00000+0  47183-3 0  9995
2 55338  43.0033  91.6287 0001498 255.2356 104.8320 15.02538628 68295
STARLINK-5671           
1 55339U 23013J   24109.36004986  .00000336  00000+0  39918-4 0  9991
2 55339  43.0026  91.5862 0001190 271.0995  88.9711 15.02530341 67862
STARLINK-5675           
1 55340U 23013K   24109.34784281  .00000642  00000+0  62619-4 0  9998
2 55340  43.0029  91.4962 0001254 254.9481 105.1222 15.02527507 67867
STARLINK-5670           
1 55341U 23013L   24109.36227584  .00009503  00000+0  71728-3 0  9994
2 55341  43.0029  91.6033 0002000 242.6960 117.3679 15.02552936 67860
STARLINK-5657           
1 55342U 23013M   24109.35668233  .00011115  00000+0  83543-3 0  9994
2 55342  43.0039  91.5594 0001208 270.7709  89.2995 15.02586474 67867
STARLINK-5661           
1 55343U 23013N   24109.01876772  .00007569  00000+0  57463-3 0  9997
2 55343  43.0022  93.3228 0001552 249.1995 110.8681 15.02546020 67814
